{
  "type": "FeatureCollection",
  "features": [
    {
      "type": "Feature",
      "properties": {
        "norad_id": 43603,
        "name": "BEIDOU-3 M11 (C25)",
        "group": "beidou",
        "lat": -53.83904050572857,
        "lon": 88.84031626039581,
        "alt_km": 21544.405622672406,
        "timestamp": "2025-12-02T08:59:32.979507+00:00",
        "meta_object_name": "BEIDOU-3 M11 (C25)",
        "meta_object_id": "2018-067B",
        "meta_epoch": "2025-11-29T19:57:56.721600",
        "meta_mean_motion": 1.86227148,
        "meta_eccentricity": 0.00055574,
        "meta_inclination": 54.1805,
        "meta_ra_of_asc_node": 187.7656,
        "meta_arg_of_pericenter": 35.6802,
        "meta_mean_anomaly": 324.4454,
        "meta_ephemeris_type": 0,
        "meta_classification_type": "U",
        "meta_norad_cat_id": 43603,
        "meta_element_set_no": 999,
        "meta_rev_at_epoch": 4943,
        "meta_bstar": 0,
        "meta_mean_motion_dot": 1.1e-06,
        "meta_mean_motion_ddot": 0,
        "tle_line1": "1 43603U 18067B   25333.83190650  .00000110  00000+0  00000+0 0  9996",
        "tle_line2": "2 43603  54.1805 187.7656 0005557  35.6802 324.4454  1.86227148 49432"
      },
      "geometry": {
        "type": "Point",
        "coordinates": [
          88.84031626039581,
          -53.83904050572857
        ]
      }
    },
    {
      "type": "Feature",
      "properties": {
        "norad_id": 43622,
        "name": "BEIDOU-3 M13 (C32)",
        "group": "beidou",
        "lat": -49.66144791115814,
        "lon": 17.878117839279476,
        "alt_km": 21518.112710767058,
        "timestamp": "2025-12-02T08:59:32.979519+00:00",
        "meta_object_name": "BEIDOU-3 M13 (C32)",
        "meta_object_id": "2018-072A",
        "meta_epoch": "2025-12-01T22:28:14.581632",
        "meta_mean_motion": 1.8623073,
        "meta_eccentricity": 0.0005591,
        "meta_inclination": 56.4497,
        "meta_ra_of_asc_node": 69.1783,
        "meta_arg_of_pericenter": 298.7186,
        "meta_mean_anomaly": 61.2282,
        "meta_ephemeris_type": 0,
        "meta_classification_type": "U",
        "meta_norad_cat_id": 43622,
        "meta_element_set_no": 999,
        "meta_rev_at_epoch": 4898,
        "meta_bstar": 0,
        "meta_mean_motion_dot": -4.4e-07,
        "meta_mean_motion_ddot": 0,
        "tle_line1": "1 43622U 18072A   25335.93627988 -.00000044  00000+0  00000+0 0  9992",
        "tle_line2": "2 43622  56.4497  69.1783 0005591 298.7186  61.2282  1.86230730 48989"
      },
      "geometry": {
        "type": "Point",
        "coordinates": [
          17.878117839279476,
          -49.66144791115814
        ]
      }
    },
    {
      "type": "Feature",
      "properties": {
        "norad_id": 43623,
        "name": "BEIDOU-3 M14 (C33)",
        "group": "beidou",
        "lat": 19.933265486435637,
        "lon": 83.05955298399213,
        "alt_km": 21520.08260480931,
        "timestamp": "2025-12-02T08:59:32.979531+00:00",
        "meta_object_name": "BEIDOU-3 M14 (C33)",
        "meta_object_id": "2018-072B",
        "meta_epoch": "2025-12-01T19:14:30.967584",
        "meta_mean_motion": 1.86230723,
        "meta_eccentricity": 0.0003032,
        "meta_inclination": 56.4513,
        "meta_ra_of_asc_node": 69.1766,
        "meta_arg_of_pericenter": 336.0963,
        "meta_mean_anomaly": 23.8927,
        "meta_ephemeris_type": 0,
        "meta_classification_type": "U",
        "meta_norad_cat_id": 43623,
        "meta_element_set_no": 999,
        "meta_rev_at_epoch": 4897,
        "meta_bstar": 0,
        "meta_mean_motion_dot": -4.3e-07,
        "meta_mean_motion_ddot": 0,
        "tle_line1": "1 43623U 18072B   25335.80174731 -.00000043  00000+0  00000+0 0  9991",
        "tle_line2": "2 43623  56.4513  69.1766 0003032 336.0963  23.8927  1.86230723 48978"
      },
      "geometry": {
        "type": "Point",
        "coordinates": [
          83.05955298399213,
          19.933265486435637
        ]
      }
    },
    {
      "type": "Feature",
      "properties": {
        "norad_id": 43647,
        "name": "BEIDOU-3 M16 (C35)",
        "group": "beidou",
        "lat": -53.46240180075655,
        "lon": -129.3184968010182,
        "alt_km": 21537.10119376351,
        "timestamp": "2025-12-02T08:59:32.979542+00:00",
        "meta_object_name": "BEIDOU-3 M16 (C35)",
        "meta_object_id": "2018-078A",
        "meta_epoch": "2025-12-01T23:02:01.408992",
        "meta_mean_motion": 1.86232129,
        "meta_eccentricity": 0.0006947,
        "meta_inclination": 54.272,
        "meta_ra_of_asc_node": 306.8982,
        "meta_arg_of_pericenter": 18.3506,
        "meta_mean_anomaly": 341.6639,
        "meta_ephemeris_type": 0,
        "meta_classification_type": "U",
        "meta_norad_cat_id": 43647,
        "meta_element_set_no": 999,
        "meta_rev_at_epoch": 4848,
        "meta_bstar": 0,
        "meta_mean_motion_dot": -6.1e-07,
        "meta_mean_motion_ddot": 0,
        "tle_line1": "1 43647U 18078A   25335.95973853 -.00000061  00000+0  00000+0 0  9991",
        "tle_line2": "2 43647  54.2720 306.8982 0006947  18.3506 341.6639  1.86232129 48481"
      },
      "geometry": {
        "type": "Point",
        "coordinates": [
          -129.3184968010182,
          -53.46240180075655
        ]
      }
    },
    {
      "type": "Feature",
      "properties": {
        "norad_id": 43648,
        "name": "BEIDOU-3 M15 (C34)",
        "group": "beidou",
        "lat": -9.425987137131557,
        "lon": 133.72714737343662,
        "alt_km": 21539.305929156853,
        "timestamp": "2025-12-02T08:59:32.979554+00:00",
        "meta_object_name": "BEIDOU-3 M15 (C34)",
        "meta_object_id": "2018-078B",
        "meta_epoch": "2025-12-01T00:21:40.976640",
        "meta_mean_motion": 1.86232,
        "meta_eccentricity": 0.0003569,
        "meta_inclination": 54.2686,
        "meta_ra_of_asc_node": 306.9322,
        "meta_arg_of_pericenter": 17.0419,
        "meta_mean_anomaly": 342.9634,
        "meta_ephemeris_type": 0,
        "meta_classification_type": "U",
        "meta_norad_cat_id": 43648,
        "meta_element_set_no": 999,
        "meta_rev_at_epoch": 4848,
        "meta_bstar": 0,
        "meta_mean_motion_dot": -5.6e-07,
        "meta_mean_motion_ddot": 0,
        "tle_line1": "1 43648U 18078B   25335.01505760 -.00000056  00000+0  00000+0 0  9991",
        "tle_line2": "2 43648  54.2686 306.9322 0003569  17.0419 342.9634  1.86232000 48485"
      },
      "geometry": {
        "type": "Point",
        "coordinates": [
          133.72714737343662,
          -9.425987137131557
        ]
      }
    },
    {
      "type": "Feature",
      "properties": {
        "norad_id": 43683,
        "name": "BEIDOU-3 G1 (C59)",
        "group": "beidou",
        "lat": -2.2872495165049864,
        "lon": -13.652907412758692,
        "alt_km": 35794.6112020496,
        "timestamp": "2025-12-02T08:59:32.979566+00:00",
        "meta_object_name": "BEIDOU-3 G1 (C59)",
        "meta_object_id": "2018-085A",
        "meta_epoch": "2025-12-02T04:10:35.246784",
        "meta_mean_motion": 1.00274165,
        "meta_eccentricity": 0.0002115,
        "meta_inclination": 2.5788,
        "meta_ra_of_asc_node": 103.2931,
        "meta_arg_of_pericenter": 61.3809,
        "meta_mean_anomaly": 109.2811,
        "meta_ephemeris_type": 0,
        "meta_classification_type": "U",
        "meta_norad_cat_id": 43683,
        "meta_element_set_no": 999,
        "meta_rev_at_epoch": 2608,
        "meta_bstar": 0,
        "meta_mean_motion_dot": -2.56e-06,
        "meta_mean_motion_ddot": 0,
        "tle_line1": "1 43683U 18085A   25336.17401906 -.00000256  00000+0  00000+0 0  9995",
        "tle_line2": "2 43683   2.5788 103.2931 0002115  61.3809 109.2811  1.00274165 26085"
      },
      "geometry": {
        "type": "Point",
        "coordinates": [
          -13.652907412758692,
          -2.2872495165049864
        ]
      }
    },
    {
      "type": "Feature",
      "properties": {
        "norad_id": 43706,
        "name": "BEIDOU-3 M17 (C36)",
        "group": "beidou",
        "lat": 53.89957900686571,
        "lon": -88.90561446200013,
        "alt_km": 21535.486616265644,
        "timestamp": "2025-12-02T08:59:32.979578+00:00",
        "meta_object_name": "BEIDOU-3 M17 (C36)",
        "meta_object_id": "2018-093A",
        "meta_epoch": "2025-11-30T05:23:59.265600",
        "meta_mean_motion": 1.86228182,
        "meta_eccentricity": 0.00063751,
        "meta_inclination": 54.1727,
        "meta_ra_of_asc_node": 189.0472,
        "meta_arg_of_pericenter": 306.0351,
        "meta_mean_anomaly": 138.1008,
        "meta_ephemeris_type": 0,
        "meta_classification_type": "U",
        "meta_norad_cat_id": 43706,
        "meta_element_set_no": 999,
        "meta_rev_at_epoch": 4783,
        "meta_bstar": 0,
        "meta_mean_motion_dot": 1.11e-06,
        "meta_mean_motion_ddot": 0,
        "tle_line1": "1 43706U 18093A   25334.22499150  .00000111  00000+0  00000+0 0  9991",
        "tle_line2": "2 43706  54.1727 189.0472 0006375 306.0351 138.1008  1.86228182 47839"
      },
      "geometry": {
        "type": "Point",
        "coordinates": [
          -88.90561446200013,
          53.89957900686571
        ]
      }
    }
  ]
}